<?xml version="1.0" encoding="UTF-8" standalone="yes"?>
<gpx version="1.1" creator="https://onthegomap.com" xmlns="http://www.topografix.com/GPX/1/1">
  <metadata>
    <name>Carrera 5K Uniautónoma Fest 2026</name>
    <link href="https://onthegomap.com">
      <text>On The Go Map</text>
    </link>
    <time>2026-10-06T01:44:32.985Z</time>
    <copyright author="On The Go Map, OpenStreetMap Contributors">
      <year>2026</year>
    </copyright>
  </metadata>
  <trk>
    <name>Carrera 5K Uniautónoma Fest 2026</name>
    <trkseg>
      <trkpt lat="2.44073" lon="-76.60427"/>
      <trkpt lat="2.44077" lon="-76.60426"/>
      <trkpt lat="2.44072" lon="-76.60412"/>
      <trkpt lat="2.44049" lon="-76.60337"/>
      <trkpt lat="2.44025" lon="-76.60251"/>
      <trkpt lat="2.44025" lon="-76.6025"/>
      <trkpt lat="2.44023" lon="-76.60245"/>
      <trkpt lat="2.44016" lon="-76.60222"/>
      <trkpt lat="2.43994" lon="-76.60167"/>
      <trkpt lat="2.43984" lon="-76.60145"/>
      <trkpt lat="2.43976" lon="-76.60131"/>
      <trkpt lat="2.43964" lon="-76.6011"/>
      <trkpt lat="2.43949" lon="-76.60091"/>
      <trkpt lat="2.43882" lon="-76.60015"/>
      <trkpt lat="2.43869" lon="-76.59998"/>
      <trkpt lat="2.43857" lon="-76.59981"/>
      <trkpt lat="2.43838" lon="-76.59951"/>
      <trkpt lat="2.43836" lon="-76.5994"/>
      <trkpt lat="2.43838" lon="-76.59925"/>
      <trkpt lat="2.4384" lon="-76.59851"/>
      <trkpt lat="2.43838" lon="-76.59834"/>
      <trkpt lat="2.43832" lon="-76.59807"/>
      <trkpt lat="2.43824" lon="-76.59789"/>
      <trkpt lat="2.43817" lon="-76.59776"/>
      <trkpt lat="2.4381" lon="-76.59767"/>
      <trkpt lat="2.43797" lon="-76.59752"/>
      <trkpt lat="2.43799" lon="-76.59751"/>
      <trkpt lat="2.43804" lon="-76.5975"/>
      <trkpt lat="2.43808" lon="-76.59751"/>
      <trkpt lat="2.43814" lon="-76.59757"/>
      <trkpt lat="2.43825" lon="-76.59774"/>
      <trkpt lat="2.43835" lon="-76.59792"/>
      <trkpt lat="2.4384" lon="-76.59807"/>
      <trkpt lat="2.43848" lon="-76.59831"/>
      <trkpt lat="2.43851" lon="-76.59844"/>
      <trkpt lat="2.43856" lon="-76.59863"/>
      <trkpt lat="2.4386" lon="-76.59878"/>
      <trkpt lat="2.43866" lon="-76.59891"/>
      <trkpt lat="2.43895" lon="-76.59936"/>
      <trkpt lat="2.43905" lon="-76.59954"/>
      <trkpt lat="2.43911" lon="-76.59962"/>
      <trkpt lat="2.43921" lon="-76.5997"/>
      <trkpt lat="2.43932" lon="-76.59975"/>
      <trkpt lat="2.4394" lon="-76.5997"/>
      <trkpt lat="2.43938" lon="-76.59974"/>
      <trkpt lat="2.43941" lon="-76.59976"/>
      <trkpt lat="2.43944" lon="-76.59975"/>
      <trkpt lat="2.43947" lon="-76.59976"/>
      <trkpt lat="2.43952" lon="-76.59982"/>
      <trkpt lat="2.43961" lon="-76.59982"/>
      <trkpt lat="2.43962" lon="-76.59985"/>
      <trkpt lat="2.43962" lon="-76.59987"/>
      <trkpt lat="2.4396" lon="-76.5999"/>
      <trkpt lat="2.4396" lon="-76.59992"/>
      <trkpt lat="2.43963" lon="-76.59992"/>
      <trkpt lat="2.43966" lon="-76.5999"/>
      <trkpt lat="2.43968" lon="-76.59992"/>
      <trkpt lat="2.43969" lon="-76.59997"/>
      <trkpt lat="2.43969" lon="-76.6"/>
      <trkpt lat="2.43965" lon="-76.60004"/>
      <trkpt lat="2.43967" lon="-76.60006"/>
      <trkpt lat="2.43969" lon="-76.60005"/>
      <trkpt lat="2.43971" lon="-76.60002"/>
      <trkpt lat="2.43972" lon="-76.60002"/>
      <trkpt lat="2.43977" lon="-76.60003"/>
      <trkpt lat="2.43978" lon="-76.60006"/>
      <trkpt lat="2.43972" lon="-76.60014"/>
      <trkpt lat="2.43973" lon="-76.60017"/>
      <trkpt lat="2.43968" lon="-76.60022"/>
      <trkpt lat="2.43976" lon="-76.60025"/>
      <trkpt lat="2.43983" lon="-76.60025"/>
      <trkpt lat="2.43988" lon="-76.60021"/>
      <trkpt lat="2.43995" lon="-76.60019"/>
      <trkpt lat="2.43994" lon="-76.60014"/>
      <trkpt lat="2.44001" lon="-76.60009"/>
      <trkpt lat="2.44012" lon="-76.60006"/>
      <trkpt lat="2.44018" lon="-76.60002"/>
      <trkpt lat="2.44026" lon="-76.59999"/>
      <trkpt lat="2.44037" lon="-76.60009"/>
      <trkpt lat="2.44037" lon="-76.6001"/>
      <trkpt lat="2.44055" lon="-76.60058"/>
      <trkpt lat="2.44079" lon="-76.60131"/>
      <trkpt lat="2.44108" lon="-76.60222"/>
      <trkpt lat="2.44109" lon="-76.60222"/>
      <trkpt lat="2.44165" lon="-76.60202"/>
      <trkpt lat="2.44197" lon="-76.60191"/>
      <trkpt lat="2.44281" lon="-76.60159"/>
      <trkpt lat="2.44329" lon="-76.60144"/>
      <trkpt lat="2.44366" lon="-76.60132"/>
      <trkpt lat="2.4437" lon="-76.6013"/>
      <trkpt lat="2.444" lon="-76.60121"/>
      <trkpt lat="2.4441" lon="-76.60118"/>
      <trkpt lat="2.4441" lon="-76.60119"/>
      <trkpt lat="2.4441" lon="-76.60118"/>
      <trkpt lat="2.44406" lon="-76.60097"/>
      <trkpt lat="2.44408" lon="-76.60083"/>
      <trkpt lat="2.44399" lon="-76.60011"/>
      <trkpt lat="2.4439" lon="-76.59967"/>
      <trkpt lat="2.44391" lon="-76.59928"/>
      <trkpt lat="2.44398" lon="-76.59889"/>
      <trkpt lat="2.44397" lon="-76.59879"/>
      <trkpt lat="2.44394" lon="-76.59868"/>
      <trkpt lat="2.44387" lon="-76.59855"/>
      <trkpt lat="2.44386" lon="-76.59854"/>
      <trkpt lat="2.44387" lon="-76.59855"/>
      <trkpt lat="2.4439" lon="-76.59855"/>
      <trkpt lat="2.44394" lon="-76.59856"/>
      <trkpt lat="2.44415" lon="-76.59871"/>
      <trkpt lat="2.44417" lon="-76.59869"/>
      <trkpt lat="2.4442" lon="-76.59869"/>
      <trkpt lat="2.44423" lon="-76.5987"/>
      <trkpt lat="2.44424" lon="-76.59873"/>
      <trkpt lat="2.44435" lon="-76.59879"/>
      <trkpt lat="2.44481" lon="-76.59912"/>
      <trkpt lat="2.445" lon="-76.59927"/>
      <trkpt lat="2.44544" lon="-76.59983"/>
      <trkpt lat="2.44556" lon="-76.60005"/>
      <trkpt lat="2.44557" lon="-76.60014"/>
      <trkpt lat="2.44557" lon="-76.60016"/>
      <trkpt lat="2.44556" lon="-76.60026"/>
      <trkpt lat="2.44548" lon="-76.60039"/>
      <trkpt lat="2.44523" lon="-76.60059"/>
      <trkpt lat="2.44494" lon="-76.60081"/>
      <trkpt lat="2.44475" lon="-76.60094"/>
      <trkpt lat="2.44462" lon="-76.60104"/>
      <trkpt lat="2.44474" lon="-76.601"/>
      <trkpt lat="2.44475" lon="-76.601"/>
      <trkpt lat="2.44517" lon="-76.6008"/>
      <trkpt lat="2.44555" lon="-76.60056"/>
      <trkpt lat="2.44582" lon="-76.60034"/>
      <trkpt lat="2.44623" lon="-76.59987"/>
      <trkpt lat="2.44649" lon="-76.59954"/>
      <trkpt lat="2.44651" lon="-76.59947"/>
      <trkpt lat="2.44693" lon="-76.59873"/>
      <trkpt lat="2.44703" lon="-76.59855"/>
      <trkpt lat="2.44722" lon="-76.59808"/>
      <trkpt lat="2.44724" lon="-76.59802"/>
      <trkpt lat="2.44766" lon="-76.59637"/>
      <trkpt lat="2.44791" lon="-76.59546"/>
      <trkpt lat="2.44811" lon="-76.59494"/>
      <trkpt lat="2.44838" lon="-76.59438"/>
      <trkpt lat="2.44849" lon="-76.59421"/>
      <trkpt lat="2.44862" lon="-76.59404"/>
      <trkpt lat="2.44917" lon="-76.59341"/>
      <trkpt lat="2.44933" lon="-76.59324"/>
      <trkpt lat="2.44933" lon="-76.59321"/>
      <trkpt lat="2.44933" lon="-76.59324"/>
      <trkpt lat="2.44998" lon="-76.59264"/>
      <trkpt lat="2.45017" lon="-76.59247"/>
      <trkpt lat="2.45029" lon="-76.59232"/>
      <trkpt lat="2.45039" lon="-76.59216"/>
      <trkpt lat="2.45045" lon="-76.59203"/>
      <trkpt lat="2.45089" lon="-76.59091"/>
      <trkpt lat="2.45091" lon="-76.59085"/>
      <trkpt lat="2.4511" lon="-76.59036"/>
      <trkpt lat="2.45122" lon="-76.59009"/>
      <trkpt lat="2.45138" lon="-76.5899"/>
      <trkpt lat="2.45156" lon="-76.58969"/>
      <trkpt lat="2.45155" lon="-76.58968"/>
      <trkpt lat="2.45156" lon="-76.58969"/>
      <trkpt lat="2.45158" lon="-76.58976"/>
      <trkpt lat="2.45163" lon="-76.58981"/>
      <trkpt lat="2.45169" lon="-76.58985"/>
      <trkpt lat="2.45207" lon="-76.58988"/>
      <trkpt lat="2.45258" lon="-76.58992"/>
      <trkpt lat="2.45207" lon="-76.58988"/>
      <trkpt lat="2.4521" lon="-76.58985"/>
      <trkpt lat="2.45212" lon="-76.58981"/>
      <trkpt lat="2.45213" lon="-76.58977"/>
      <trkpt lat="2.45212" lon="-76.58973"/>
      <trkpt lat="2.4521" lon="-76.58969"/>
      <trkpt lat="2.45259" lon="-76.58984"/>
      <trkpt lat="2.45285" lon="-76.58987"/>
      <trkpt lat="2.45306" lon="-76.58988"/>
      <trkpt lat="2.4534" lon="-76.58991"/>
      <trkpt lat="2.45348" lon="-76.58994"/>
      <trkpt lat="2.4536" lon="-76.58998"/>
      <trkpt lat="2.45451" lon="-76.5904"/>
      <trkpt lat="2.45465" lon="-76.59047"/>
      <trkpt lat="2.45558" lon="-76.59091"/>
      <trkpt lat="2.4556" lon="-76.59091"/>
      <trkpt lat="2.45558" lon="-76.59091"/>
      <trkpt lat="2.45554" lon="-76.59097"/>
      <trkpt lat="2.45552" lon="-76.59101"/>
      <trkpt lat="2.45533" lon="-76.59129"/>
      <trkpt lat="2.45469" lon="-76.59208"/>
    </trkseg>
  </trk>
</gpx>
