{
  "type": "Feature",
  "properties": {
    "nombre": "Carrera 5K Uniautónoma Fest 2026",
    "distanciaMetros": 2955,
    "puntos": 54,
    "origen": "OSRM / Carrera 4 → Carrera 6",
    "nota": "Revisar con organizadores: distancia medida ~2.95 km"
  },
  "geometry": {
    "type": "LineString",
    "coordinates": [
      [
        -76.604289,
        2.440673
      ],
      [
        -76.604569,
        2.439881
      ],
      [
        -76.604801,
        2.439954
      ],
      [
        -76.605471,
        2.440166
      ],
      [
        -76.605141,
        2.441046
      ],
      [
        -76.604256,
        2.440768
      ],
      [
        -76.604116,
        2.440724
      ],
      [
        -76.603371,
        2.44049
      ],
      [
        -76.603083,
        2.441362
      ],
      [
        -76.602795,
        2.44219
      ],
      [
        -76.602782,
        2.442229
      ],
      [
        -76.602475,
        2.443097
      ],
      [
        -76.602325,
        2.443515
      ],
      [
        -76.602171,
        2.443957
      ],
      [
        -76.602068,
        2.44434
      ],
      [
        -76.602077,
        2.444442
      ],
      [
        -76.602119,
        2.44457
      ],
      [
        -76.602142,
        2.44462
      ],
      [
        -76.602194,
        2.444717
      ],
      [
        -76.602384,
        2.445104
      ],
      [
        -76.60258,
        2.445505
      ],
      [
        -76.602535,
        2.445561
      ],
      [
        -76.602551,
        2.445589
      ],
      [
        -76.602685,
        2.445837
      ],
      [
        -76.602915,
        2.446275
      ],
      [
        -76.602988,
        2.44642
      ],
      [
        -76.603181,
        2.446828
      ],
      [
        -76.603362,
        2.447241
      ],
      [
        -76.603376,
        2.447276
      ],
      [
        -76.6036,
        2.447843
      ],
      [
        -76.603627,
        2.44791
      ],
      [
        -76.602767,
        2.44891
      ],
      [
        -76.601768,
        2.450085
      ],
      [
        -76.601357,
        2.450495
      ],
      [
        -76.601032,
        2.450698
      ],
      [
        -76.60041,
        2.450922
      ],
      [
        -76.600034,
        2.451
      ],
      [
        -76.599745,
        2.451128
      ],
      [
        -76.599516,
        2.451267
      ],
      [
        -76.599329,
        2.451382
      ],
      [
        -76.59921,
        2.451473
      ],
      [
        -76.599053,
        2.451595
      ],
      [
        -76.598988,
        2.45163
      ],
      [
        -76.598916,
        2.451664
      ],
      [
        -76.598712,
        2.451752
      ],
      [
        -76.597582,
        2.452153
      ],
      [
        -76.597522,
        2.452176
      ],
      [
        -76.594628,
        2.45313
      ],
      [
        -76.594234,
        2.453253
      ],
      [
        -76.594105,
        2.453297
      ],
      [
        -76.593692,
        2.453593
      ],
      [
        -76.592988,
        2.45441
      ],
      [
        -76.592896,
        2.454533
      ],
      [
        -76.592312,
        2.455338
      ]
    ]
  }
}